NORAD_CAT_ID,OBJECT_NAME,OBJECT_TYPE,EPOCH,MEAN_MOTION,ECCENTRICITY,INCLINATION,RA_OF_ASC_NODE,ARG_OF_PERICENTER,MEAN_ANOMALY,BSTAR,MEAN_MOTION_DOT,MEAN_MOTION_DDOT,TLE_LINE0,TLE_LINE1,TLE_LINE2,SEMIMAJOR_AXIS,PERIOD,APOGEE,PERIGEE,DECAYED
53707.0,STARLINK-4667,PAYLOAD,2023-06-14 22:02:26,15.08836626,0.000122,53.2182,32.7916,91.1341,268.9791,4.2267e-05,3.85e-06,0.0,0 STARLINK-4667,1 53707U 22107H   23165.91836617  .00000385  00000-0  42267-4 0  9993,2 53707  53.2182  32.7916 0001220  91.1341 268.9791 15.08836626 43539,6917.891,95.438,540.6,538.912,0.0
53707.0,STARLINK-4667,PAYLOAD,2023-06-15 17:07:05,15.08837483,0.0001094,53.2177,29.2255,84.4119,275.6998,-1.8224e-05,-5.78e-06,0.0,0 STARLINK-4667,1 53707U 22107H   23166.71325251 -.00000578  00000-0 -18224-4 0  9991,2 53707  53.2177  29.2255 0001094  84.4119 275.6998 15.08837483 44400,6917.888,95.438,540.51,538.996,0.0
53707.0,STARLINK-4667,PAYLOAD,2023-06-16 07:25:32,15.0884512,0.0001047,53.2177,26.5494,83.3126,276.7985,3.7924e-05,3.16e-06,0.0,0 STARLINK-4667,1 53707U 22107H   23167.30940510  .00000316  00000-0  37924-4 0  9994,2 53707  53.2177  26.5494 0001047  83.3126 276.7985 15.08845120 43740,6917.865,95.437,540.454,539.005,0.0
53707.0,STARLINK-4667,PAYLOAD,2023-06-16 10:36:19,15.088374,0.0001027,53.2176,25.9549,89.9878,270.1232,8.0513e-05,9.94e-06,0.0,0 STARLINK-4667,1 53707U 22107H   23167.44188844  .00000994  00000-0  80513-4 0  9997,2 53707  53.2176  25.9549 0001027  89.9878 270.1232 15.08837400 44518,6917.888,95.438,540.464,539.043,0.0
53707.0,STARLINK-4667,PAYLOAD,2023-06-16 18:33:14,15.08842834,0.0001039,53.2176,24.4679,91.6609,268.4503,8.5974e-05,1.081e-05,0.0,0 STARLINK-4667,1 53707U 22107H   23167.77308472  .00001081  00000-0  85974-4 0  9998,2 53707  53.2176  24.4679 0001039  91.6609 268.4503 15.08842834 44564,6917.872,95.437,540.455,539.018,0.0
53707.0,STARLINK-4667,PAYLOAD,2023-06-16 21:44:00,15.08847781,0.000101,53.2174,23.8736,96.9087,263.2021,0.00011288,1.51e-05,0.0,0 STARLINK-4667,1 53707U 22107H   23167.90556039  .00001510  00000-0  11288-3 0  9990,2 53707  53.2174  23.8736 0001010  96.9087 263.2021 15.08847781 43839,6917.857,95.437,540.42,539.023,0.0
53707.0,STARLINK-4667,PAYLOAD,2023-06-17 07:16:20,15.08835102,8.76e-05,53.2174,22.0903,97.455,262.6542,2.2867e-05,7.6e-07,0.0,0 STARLINK-4667,1 53707U 22107H   23168.30301151  .00000076  00000-0  22867-4 0  9990,2 53707  53.2174  22.0903 0000876  97.4550 262.6542 15.08835102 43897,6917.895,95.438,540.366,539.154,0.0
53707.0,STARLINK-4667,PAYLOAD,2023-06-17 16:48:40,15.08819554,9.17e-05,53.2165,20.3075,104.5078,255.6015,-0.00015022,-2.676e-05,0.0,0 STARLINK-4667,1 53707U 22107H   23168.70046999 -.00002676  00000-0 -15022-3 0  9994,2 53707  53.2165  20.3075 0000917 104.5078 255.6015 15.08819554 43956,6917.943,95.439,540.442,539.174,0.0
53707.0,STARLINK-4667,PAYLOAD,2023-06-17 23:10:13,15.08825548,0.0001773,53.2166,19.1112,95.0614,265.0581,-0.00010206,-1.911e-05,0.0,0 STARLINK-4667,1 53707U 22107H   23168.96542880 -.00001911  00000-0 -10206-3 0  9992,2 53707  53.2166  19.1112 0001773  95.0614 265.0581 15.08825548 43993,6917.925,95.438,541.016,538.563,0.0
53707.0,STARLINK-4667,PAYLOAD,2023-06-18 07:07:08,15.08834823,9.82e-05,53.2178,17.6294,103.9849,256.1253,-3.975e-05,-9.2e-06,0.0,0 STARLINK-4667,1 53707U 22107H   23169.29662072 -.00000920  00000-0 -39750-4 0  9990,2 53707  53.2178  17.6294 0000982 103.9849 256.1253 15.08834823 44040,6917.896,95.438,540.441,539.082,0.0
53707.0,STARLINK-4667,PAYLOAD,2023-06-18 19:50:12,15.08843951,9.68e-05,53.2172,15.2505,93.793,266.3172,5.9944e-05,6.66e-06,0.0,0 STARLINK-4667,1 53707U 22107H   23169.82653258  .00000666  00000-0  59944-4 0  9997,2 53707  53.2172  15.2505 0000968  93.7930 266.3172 15.08843951 44128,6917.868,95.437,540.403,539.064,0.0
53707.0,STARLINK-4667,PAYLOAD,2023-06-19 08:33:17,15.0883696,0.0001436,53.2177,12.8694,102.74,257.3753,7.7456e-05,9.45e-06,0.0,0 STARLINK-4667,1 53707U 22107H   23170.35645579  .00000945  00000-0  77456-4 0  9992,2 53707  53.2177  12.8694 0001436 102.7400 257.3753 15.08836960 44957,6917.89,95.438,540.748,538.761,0.0
53707.0,STARLINK-4667,PAYLOAD,2023-06-19 16:30:13,15.088332,8.03e-05,53.2179,11.3831,99.7156,260.3927,0.00020004,2.897e-05,0.0,0 STARLINK-4667,1 53707U 22107H   23170.68765514  .00002897  00000-0  20004-3 0  9994,2 53707  53.2179  11.3831 0000803  99.7156 260.3927 15.08833200 44250,6917.901,95.438,540.322,539.211,0.0
53707.0,STARLINK-4667,PAYLOAD,2023-06-19 19:40:59,15.08835245,8.89e-05,53.2177,10.7882,101.5185,258.5907,0.00020167,2.923e-05,0.0,0 STARLINK-4667,1 53707U 22107H   23170.82013441  .00002923  00000-0  20167-3 0  9995,2 53707  53.2177  10.7882 0000889 101.5185 258.5907 15.08835245 45029,6917.895,95.438,540.375,539.145,0.0
53707.0,STARLINK-4667,PAYLOAD,2023-06-20 08:24:04,15.08839513,7.25e-05,53.2176,8.4094,100.2677,259.8397,9.6293e-05,1.245e-05,0.0,0 STARLINK-4667,1 53707U 22107H   23171.35005511  .00001245  00000-0  96293-4 0  9993,2 53707  53.2176   8.4094 0000725 100.2677 259.8397 15.08839513 45106,6917.882,95.438,540.248,539.245,0.0
53707.0,STARLINK-4667,PAYLOAD,2023-06-20 17:56:23,15.08844113,7.13e-05,53.2178,6.6253,97.8274,262.2799,3.6408e-05,2.92e-06,0.0,0 STARLINK-4667,1 53707U 22107H   23171.74749365  .00000292  00000-0  36408-4 0  9991,2 53707  53.2178   6.6253 0000713  97.8274 262.2799 15.08844113 44415,6917.868,95.437,540.226,539.24,0.0
53707.0,STARLINK-4667,PAYLOAD,2023-06-20 19:31:46,15.08848117,7.77e-05,53.2177,6.3278,100.0751,260.0329,7.1204e-06,-1.74e-06,0.0,0 STARLINK-4667,1 53707U 22107H   23171.81373218 -.00000174  00000-0  71204-5 0  9993,2 53707  53.2177   6.3278 0000777 100.0751 260.0329 15.08848117 45172,6917.856,95.437,540.258,539.183,0.0
53707.0,STARLINK-4667,PAYLOAD,2023-06-21 17:47:10,15.0883963,8.31e-05,53.2175,2.1656,77.368,282.7405,-8.0791e-06,-4.16e-06,0.0,0 STARLINK-4667,1 53707U 22107H   23172.74109701 -.00000416  00000-0 -80791-5 0  9991,2 53707  53.2175   2.1656 0000831  77.3680 282.7405 15.08839630 44560,6917.882,95.438,540.321,539.172,0.0
53707.0,STARLINK-4667,PAYLOAD,2023-06-21 19:22:33,15.0884252,8.13e-05,53.2175,1.8681,80.038,280.0703,1.2664e-05,-8.6e-07,0.0,0 STARLINK-4667,1 53707U 22107H   23172.80733437 -.00000086  00000-0  12664-4 0  9992,2 53707  53.2175   1.8681 0000813  80.0380 280.0703 15.08842520 45321,6917.873,95.437,540.3,539.175,0.0
53707.0,STARLINK-4667,PAYLOAD,2023-06-22 19:13:20,15.088427,8.28e-05,53.2173,357.4086,73.1328,286.9755,8.4935e-05,1.064e-05,0.0,0 STARLINK-4667,1 53707U 22107H   23173.80093357  .00001064  00000-0  84935-4 0  9999,2 53707  53.2173 357.4086 0000828  73.1328 286.9755 15.08842700 44724,6917.872,95.437,540.31,539.164,0.0
53707.0,STARLINK-4667,PAYLOAD,2023-06-23 11:07:12,15.08829967,0.0001121,53.2186,354.4314,84.5219,275.59,3.7737e-05,3.13e-06,0.0,0 STARLINK-4667,1 53707U 22107H   23174.46334337  .00000313  00000-0  37737-4 0  9992,2 53707  53.2186 354.4314 0001121  84.5219 275.5900 15.08829967 44828,6917.911,95.438,540.552,539.001,0.0
53707.0,STARLINK-4667,PAYLOAD,2023-06-23 19:04:07,15.08842746,8.1e-05,53.2175,352.9481,85.3541,274.7544,5.6151e-05,6.06e-06,0.0,0 STARLINK-4667,1 53707U 22107H   23174.79453535  .00000606  00000-0  56151-4 0  9996,2 53707  53.2175 352.9481 0000810  85.3541 274.7544 15.08842746 44875,6917.872,95.437,540.297,539.177,0.0
53707.0,STARLINK-4667,PAYLOAD,2023-06-23 22:14:54,15.08835005,5.93e-05,53.2172,352.3541,87.7063,272.3997,-7.105e-06,-4.01e-06,0.0,0 STARLINK-4667,1 53707U 22107H   23174.92702218 -.00000401  00000-0 -71050-5 0  9997,2 53707  53.2172 352.3541 0000593  87.7063 272.3997 15.08835005 44894,6917.896,95.438,540.171,539.35,0.0
53707.0,STARLINK-4667,PAYLOAD,2023-06-24 04:36:29,15.08811597,0.000111,53.2168,351.1614,69.7831,290.3281,-0.00017161,-3.016e-05,0.0,0 STARLINK-4667,1 53707U 22107H   23175.19200647 -.00003016  00000-0 -17161-3 0  9992,2 53707  53.2168 351.1614 0001110  69.7831 290.3281 15.08811597 44937,6917.967,95.439,540.6,539.064,0.0
53707.0,STARLINK-4667,PAYLOAD,2023-06-24 15:44:11,15.08820286,5.54e-05,53.2171,349.0817,108.655,251.4503,-0.00015161,-2.698e-05,0.0,0 STARLINK-4667,1 53707U 22107H   23175.65568548 -.00002698  00000-0 -15161-3 0  9993,2 53707  53.2171 349.0817 0000554 108.6550 251.4503 15.08820286 45003,6917.941,95.439,540.189,539.422,0.0
53707.0,STARLINK-4667,PAYLOAD,2023-06-24 22:05:43,15.08831672,7.81e-05,53.2176,347.8928,90.4889,269.6193,-3.776e-05,-8.88e-06,0.0,0 STARLINK-4667,1 53707U 22107H   23175.92063837 -.00000888  00000-0 -37760-4 0  9993,2 53707  53.2176 347.8928 0000781  90.4889 269.6193 15.08831672 45043,6917.906,95.438,540.311,539.231,0.0
53707.0,STARLINK-4667,PAYLOAD,2023-06-25 04:27:15,15.08838228,9.14e-05,53.2187,346.6993,71.7814,288.3277,2.8469e-05,1.65e-06,0.0,0 STARLINK-4667,1 53707U 22107H   23176.18559412  .00000165  00000-0  28469-4 0  9993,2 53707  53.2187 346.6993 0000914  71.7814 288.3277 15.08838228 45081,6917.886,95.438,540.383,539.119,0.0
53707.0,STARLINK-4667,PAYLOAD,2023-06-25 15:34:56,15.08848859,8.87e-05,53.2174,344.6206,97.5171,262.5922,0.00037385,5.668e-05,0.0,0 STARLINK-4667,1 53707U 22107H   23176.64927054  .00005668  00000-0  37385-3 0  9994,2 53707  53.2174 344.6206 0000887  97.5171 262.5922 15.08848859 45153,6917.853,95.437,540.332,539.105,0.0
53707.0,STARLINK-4667,PAYLOAD,2023-06-26 17:01:06,15.08859274,6.92e-05,53.217,339.8634,75.8339,284.273,0.0004839,7.426e-05,0.0,0 STARLINK-4667,1 53707U 22107H   23177.70910820  .00007426  00000-0  48390-3 0  9997,2 53707  53.2170 339.8634 0000692  75.8339 284.2730 15.08859274 45318,6917.821,95.436,540.165,539.208,0.0
53707.0,STARLINK-4667,PAYLOAD,2023-06-27 04:08:48,15.08856568,9.06e-05,53.2168,337.7823,65.1247,294.9839,0.00099102,0.00015526,0.0,0 STARLINK-4667,1 53707U 22107H   23178.17278775  .00015526  00000-0  99102-3 0  9992,2 53707  53.2168 337.7823 0000906  65.1247 294.9839 15.08856568 45388,6917.83,95.437,540.322,539.068,0.0
